NORAD_CAT_ID,OBJECT_NAME,OBJECT_TYPE,EPOCH,MEAN_MOTION,ECCENTRICITY,INCLINATION,RA_OF_ASC_NODE,ARG_OF_PERICENTER,MEAN_ANOMALY,BSTAR,MEAN_MOTION_DOT,MEAN_MOTION_DDOT,TLE_LINE0,TLE_LINE1,TLE_LINE2,SEMIMAJOR_AXIS,PERIOD,APOGEE,PERIGEE,DECAYED
52629.0,STARLINK-4022,PAYLOAD,2022-12-09 19:34:55,15.08824422,0.0002534,53.2163,192.7312,31.4018,328.7125,-5.5469e-05,-1.171e-05,0.0,0 STARLINK-4022,1 52629U 22052AH  22343.81591891 -.00001171  00000-0 -55469-4 0  9996,2 52629  53.2163 192.7312 0002534  31.4018 328.7125 15.08824422 32348,6917.928000000001,95.439,541.5459999999998,538.04,0.0
52629.0,STARLINK-4022,PAYLOAD,2022-12-10 00:21:15,15.08563617,0.0003311,53.2159,191.8386,53.7591,306.3706,-0.0041287,-0.00064922,0.0,0 STARLINK-4022,1 52629U 22052AH  22344.01476797 -.00064922  00000-0 -41287-2 0  9990,2 52629  53.2159 191.8386 0003311  53.7591 306.3706 15.08563617 32377,6918.725,95.455,542.881,538.3,0.0
52629.0,STARLINK-4022,PAYLOAD,2022-12-10 17:50:15,15.08924365,0.0001587,53.2164,188.5651,87.3671,272.7503,0.0014011,0.00022132,0.0,0 STARLINK-4022,1 52629U 22052AH  22344.74323530  .00022132  00000-0  14011-2 0  9996,2 52629  53.2164 188.5651 0001587  87.3671 272.7503 15.08924365 32480,6917.623000000001,95.432,540.585,538.39,0.0
52629.0,STARLINK-4022,PAYLOAD,2022-12-10 19:25:42,15.08839546,0.0002311,53.2175,188.2675,42.1547,317.9623,-6.2852e-05,-1.289e-05,0.0,0 STARLINK-4022,1 52629U 22052AH  22344.80952045 -.00001289  00000-0 -62852-4 0  9992,2 52629  53.2175 188.2675 0002311  42.1547 317.9623 15.08839546 32113,6917.882,95.438,541.345,538.148,0.0
52629.0,STARLINK-4022,PAYLOAD,2022-12-11 01:47:14,15.0883577,0.0002634999999999,53.2158,187.0755,33.9732,326.1429,-7.8567e-05,-1.539e-05,0.0,0 STARLINK-4022,1 52629U 22052AH  22345.07447808 -.00001539  00000-0 -78567-4 0  9996,2 52629  53.2158 187.0755 0002635  33.9732 326.1429 15.08835770 32530,6917.893,95.438,541.581,537.935,0.0
52629.0,STARLINK-4022,PAYLOAD,2022-12-11 20:51:53,15.08835176,0.0002719,53.2157,183.507,36.5058,323.6119,0.00024711,3.646e-05,0.0,0 STARLINK-4022,1 52629U 22052AH  22345.86936436  .00003646  00000-0  24711-3 0  9993,2 52629  53.2157 183.5070 0002719  36.5058 323.6119 15.08835176 32272,6917.895,95.438,541.641,537.879,0.0
52629.0,STARLINK-4022,PAYLOAD,2022-12-12 12:45:44,15.08843997,0.0002744,53.2153,180.5334,37.7047,322.4137,0.00025739,3.811e-05,0.0,0 STARLINK-4022,1 52629U 22052AH  22346.53176193  .00003811  00000-0  25739-3 0  9999,2 52629  53.2153 180.5334 0002744  37.7047 322.4137 15.08843997 32375,6917.868,95.437,541.631,537.835,0.0
52629.0,STARLINK-4022,PAYLOAD,2022-12-12 14:21:07,15.08845407,0.0002725,53.2152,180.236,38.2554,321.8631,0.00025383,3.754e-05,0.0,0 STARLINK-4022,1 52629U 22052AH  22346.59800124  .00003754  00000-0  25383-3 0  9994,2 52629  53.2152 180.2360 0002725  38.2554 321.8631 15.08845407 32761,6917.864000000001,95.437,541.614,537.844,0.0
52629.0,STARLINK-4022,PAYLOAD,2022-12-13 12:36:31,15.08840245,0.0002818,53.2154,176.0731,40.4111,319.709,4.7422e-05,4.66e-06,0.0,0 STARLINK-4022,1 52629U 22052AH  22347.52536224  .00000466  00000-0  47422-4 0  9991,2 52629  53.2154 176.0731 0002818  40.4111 319.7090 15.08840245 32529,6917.88,95.438,541.694,537.795,0.0
52629.0,STARLINK-4022,PAYLOAD,2022-12-13 17:22:40,15.08839941,0.0002823,53.2158,175.1811,40.5347,319.5855,4.0887e-05,3.62e-06,0.0,0 STARLINK-4022,1 52629U 22052AH  22347.72408348  .00000362  00000-0  40887-4 0  9991,2 52629  53.2158 175.1811 0002823  40.5347 319.5855 15.08839941 32933,6917.880999999999,95.438,541.698,537.793,0.0
52629.0,STARLINK-4022,PAYLOAD,2022-12-13 18:58:03,15.08840063,0.0002818,53.2158,174.8837,40.55,319.5702,3.5504e-05,2.77e-06,0.0,0 STARLINK-4022,1 52629U 22052AH  22347.79032319  .00000277  00000-0  35504-4 0  9994,2 52629  53.2158 174.8837 0002818  40.5500 319.5702 15.08840063 32569,6917.88,95.438,541.695,537.7959999999998,0.0
52629.0,STARLINK-4022,PAYLOAD,2022-12-14 06:05:46,15.08823852,0.0002878,53.2154,172.8023,40.7648,319.3559,-0.00019555,-3.398e-05,0.0,0 STARLINK-4022,1 52629U 22052AH  22348.25401366 -.00003398  00000-0 -19555-3 0  9994,2 52629  53.2154 172.8023 0002878  40.7648 319.3559 15.08823852 33017,6917.93,95.439,541.786,537.804,0.0
52629.0,STARLINK-4022,PAYLOAD,2022-12-14 12:27:19,15.08825746,0.0002956,53.2155,171.6128,39.33,320.7907,-7.506800000000001e-05,-1.483e-05,0.0,0 STARLINK-4022,1 52629U 22052AH  22348.51897967 -.00001483  00000-0 -75068-4 0  9994,2 52629  53.2155 171.6128 0002956  39.3300 320.7907 15.08825746 32675,6917.924,95.438,541.8340000000002,537.744,0.0
52629.0,STARLINK-4022,PAYLOAD,2022-12-14 18:48:52,15.08826582,0.0002962,53.2156,170.4229,45.8374,314.2861,-1.5762e-05,-5.39e-06,0.0,0 STARLINK-4022,1 52629U 22052AH  22348.78393902 -.00000539  00000-0 -15762-4 0  9999,2 52629  53.2156 170.4229 0002962  45.8374 314.2861 15.08826582 32716,6917.920999999999,95.438,541.835,537.737,0.0
52629.0,STARLINK-4022,PAYLOAD,2022-12-15 05:56:34,15.08826703,0.0002833999999999,53.2165,168.3419,40.7888,319.3316,9.9096e-06,-1.31e-06,0.0,0 STARLINK-4022,1 52629U 22052AH  22349.24762102 -.00000131  00000-0  99096-5 0  9993,2 52629  53.2165 168.3419 0002834  40.7888 319.3316 15.08826703 33161,6917.920999999999,95.438,541.747,537.825,0.0
52629.0,STARLINK-4022,PAYLOAD,2022-12-15 12:18:07,15.08827906,0.0002852,53.2165,167.1523,41.2639,318.8569,2.1029e-05,4.6e-07,0.0,0 STARLINK-4022,1 52629U 22052AH  22349.51258247  .00000046  00000-0  21029-4 0  9997,2 52629  53.2165 167.1523 0002852  41.2639 318.8569 15.08827906 32826,6917.917,95.438,541.755,537.809,0.0
52629.0,STARLINK-4022,PAYLOAD,2022-12-15 18:39:39,15.08830801,0.0002847,53.2165,165.9627,40.6672,319.4532,2.9635e-05,1.83e-06,0.0,0 STARLINK-4022,1 52629U 22052AH  22349.77754236  .00000183  00000-0  29635-4 0  9997,2 52629  53.2165 165.9627 0002847  40.6672 319.4532 15.08830801 32860,6917.909000000002,95.438,541.743,537.804,0.0
52629.0,STARLINK-4022,PAYLOAD,2022-12-16 12:08:54,15.088297099999998,0.0002851,53.2166,162.6918,41.9152,318.2058,0.00014946,2.09e-05,0.0,0 STARLINK-4022,1 52629U 22052AH  22350.50618555  .00002090  00000-0  14946-3 0  9990,2 52629  53.2166 162.6918 0002851  41.9152 318.2058 15.08829710 32979,6917.9119999999975,95.438,541.749,537.805,0.0
52629.0,STARLINK-4022,PAYLOAD,2022-12-16 18:30:26,15.08834056,0.0002862,53.2167,161.5024,42.3232,317.7981,0.00018074,2.589e-05,0.0,0 STARLINK-4022,1 52629U 22052AH  22350.77114435  .00002589  00000-0  18074-3 0  9996,2 52629  53.2167 161.5024 0002862  42.3232 317.7981 15.08834056 33397,6917.899,95.438,541.743,537.784,0.0
52629.0,STARLINK-4022,PAYLOAD,2022-12-16 20:05:49,15.08835888,0.0002872,53.2167,161.205,42.4328,317.6885,0.00017646,2.521e-05,0.0,0 STARLINK-4022,1 52629U 22052AH  22350.83738390  .00002521  00000-0  17646-3 0  9995,2 52629  53.2167 161.2050 0002872  42.4328 317.6885 15.08835888 33027,6917.893,95.438,541.745,537.771,0.0
52629.0,STARLINK-4022,PAYLOAD,2022-12-17 11:59:41,15.08843804,0.0002897,53.2167,158.2313,43.6933,316.4288,0.00020142,2.919e-05,0.0,0 STARLINK-4022,1 52629U 22052AH  22351.49978064  .00002919  00000-0  20142-3 0  9998,2 52629  53.2167 158.2313 0002897  43.6933 316.4288 15.08843804 33129,6917.869000000002,95.437,541.738,537.73,0.0
52629.0,STARLINK-4022,PAYLOAD,2022-12-17 18:21:13,15.08851905,0.0002951,53.2159,157.0419,44.0688,316.0539,0.00026618,3.952e-05,0.0,0 STARLINK-4022,1 52629U 22052AH  22351.76473810  .00003952  00000-0  26618-3 0  9999,2 52629  53.2159 157.0419 0002951  44.0688 316.0539 15.08851905 33549,6917.844,95.437,541.75,537.668,0.0
52629.0,STARLINK-4022,PAYLOAD,2022-12-18 11:50:27,15.08847557,0.0002991,53.2161,153.7708,44.5111,315.6121,4.2811e-05,3.93e-06,0.0,0 STARLINK-4022,1 52629U 22052AH  22352.49337658  .00000393  00000-0  42811-4 0  9999,2 52629  53.2161 153.7708 0002991  44.5111 315.6121 15.08847557 33276,6917.857,95.437,541.7909999999998,537.653,0.0
52629.0,STARLINK-4022,PAYLOAD,2022-12-18 16:36:37,15.08848388,0.0003007,53.2163,152.8787,44.5237,315.5997,4.592899999999999e-05,4.43e-06,0.0,0 STARLINK-4022,1 52629U 22052AH  22352.69209520  .00000443  00000-0  45929-4 0  9996,2 52629  53.2163 152.8787 0003007  44.5237 315.5997 15.08848388 33681,6917.855,95.437,541.8,537.64,0.0
52629.0,STARLINK-4022,PAYLOAD,2022-12-18 21:22:46,15.08849091,0.0003005,53.2159,151.9866,44.775,315.3484,4.6811e-05,4.57e-06,0.0,0 STARLINK-4022,1 52629U 22052AH  22352.89081346  .00000457  00000-0  46811-4 0  9998,2 52629  53.2159 151.9866 0003005  44.7750 315.3484 15.08849091 33337,6917.853,95.437,541.7959999999998,537.639,0.0
52629.0,STARLINK-4022,PAYLOAD,2022-12-19 19:38:09,15.08849969,0.0002918,53.2171,147.82299999999995,43.6307,316.4915,-2.8003e-07,-2.93e-06,0.0,0 STARLINK-4022,1 52629U 22052AH  22353.81817061 -.00000293  00000-0 -28003-6 0  9997,2 52629  53.2171 147.8230 0002918  43.6307 316.4915 15.08849969 33478,6917.85,95.437,541.734,537.696,0.0
52629.0,STARLINK-4022,PAYLOAD,2022-12-19 22:48:56,15.08850634,0.0002915,53.2174,147.2284,45.2152,314.9077,1.8306e-05,3e-08,0.0,0 STARLINK-4022,1 52629U 22052AH  22353.95064874  .00000003  00000-0  18306-4 0  9998,2 52629  53.2174 147.2284 0002915  45.2152 314.9077 15.08850634 33874,6917.848000000001,95.437,541.729,537.696,0.0
52629.0,STARLINK-4022,PAYLOAD,2022-12-20 03:35:05,15.08855023,0.0002969,53.2176,146.3365,44.6224,315.5007,3.3546e-05,2.45e-06,0.0,0 STARLINK-4022,1 52629U 22052AH  22354.14936448  .00000245  00000-0  33546-4 0  9996,2 52629  53.2176 146.3365 0002969  44.6224 315.5007 15.08855023 33527,6917.834,95.437,541.753,537.646,0.0
52629.0,STARLINK-4022,PAYLOAD,2022-12-20 16:18:09,15.08857932,0.0002833,53.2176,143.9575,44.4315,315.6904,0.00014025,1.945e-05,0.0,0 STARLINK-4022,1 52629U 22052AH  22354.67927564  .00001945  00000-0  14025-3 0  9991,2 52629  53.2176 143.9575 0002833  44.4315 315.6904 15.08857932 33980,6917.826,95.436,541.65,537.731,0.0
